{"fetched_at":"2026-03-30T06:02:59Z","count":15439,"tles":[{"name":"STARLINK-4675","line1":"1 53601U 22104P   26087.61286802  .00000841  00000+0  70933-4 0  9998","line2":"2 53601  53.2171 159.0252 0001275  96.4175 263.6962 15.08842944198475","category":"Starlink"}]}